{
  "norad_id": 60111,
  "name": "STARLINK-32015",
  "history": [
    {
      "epoch": "2026-03-28T21:48:03.974976",
      "apogee_km": 475.9998526082227,
      "perigee_km": 474.4660684110595,
      "latitude_deg": 14.250405769795886,
      "longitude_deg": -81.695583359804,
      "semi_major_axis_km": 6853.369960509641,
      "eccentricity": 0.0001119,
      "inclination_deg": 53.1599,
      "raan_deg": 307.5172,
      "arg_perigee_deg": 93.571,
      "mean_anomaly_deg": 266.5419,
      "mean_motion_rev_day": 15.30194008
    }
  ]
}