{"fetched_at":"2026-03-29T16:36:15Z","count":15609,"tles":[{"name":"STARLINK-32015","line1":"1 60111U 24117W   26087.90837934  .00000557  00000+0  30943-4 0  9999","line2":"2 60111  53.1599 307.5172 0001119  93.5710 266.5419 15.30194008 99838","category":"Starlink"}]}